HIMAWARI-8              
1 40267U 14060A   24212.57212948 -.00000281  00000+0  00000+0 0  9999
2 40267   0.0374 221.5853 0000876 332.6297 101.0897  1.00271572 35979
